$$SOE
2460728.500000000, A.D. 2025-Feb-22 00:00:00.0000, 3.716244814452916E+08, -3.418104062394221E+08, 2.681202520037292E+07,
2460735.500000000, A.D. 2025-Mar-01 00:00:00.0000, 3.778099359198976E+08, -3.348157619733615E+08, 2.477931764550471E+07,
2460742.500000000, A.D. 2025-Mar-08 00:00:00.0000, 3.838533454319795E+08, -3.276952905522528E+08, 2.273729227917539E+07,
2460749.500000000, A.D. 2025-Mar-15 00:00:00.0000, 3.897522625825791E+08, -3.204515140176949E+08, 2.068670598309597E+07,
2460756.500000000, A.D. 2025-Mar-22 00:00:00.0000, 3.955042792311585E+08, -3.130869985097040E+08, 1.862832057833442E+07,
2460763.500000000, A.D. 2025-Mar-29 00:00:00.0000, 4.011070263917461E+08, -3.056043557918826E+08, 1.656290261866340E+07,
2460770.500000000, A.D. 2025-Apr-05 00:00:00.0000, 4.065581758334432E+08, -2.980062438849892E+08, 1.449122309881653E+07,
2460777.500000000, A.D. 2025-Apr-12 00:00:00.0000, 4.118554414600341E+08, -2.902953667041376E+08, 1.241405726244526E+07,
2460784.500000000, A.D. 2025-Apr-19 00:00:00.0000, 4.169965802819026E+08, -2.824744735802113E+08, 1.033218445453492E+07,
2460791.500000000, A.D. 2025-Apr-26 00:00:00.0000, 4.219793932521588E+08, -2.745463588675537E+08, 8.246387976374924E+06,
2460798.500000000, A.D. 2025-May-03 00:00:00.0000, 4.268017260809031E+08, -2.665138616177070E+08, 6.157454933859125E+06,
2460805.500000000, A.D. 2025-May-10 00:00:00.0000, 4.314614700564434E+08, -2.583798653095517E+08, 4.066176076872215E+06,
2460812.500000000, A.D. 2025-May-17 00:00:00.0000, 4.359565629102316E+08, -2.501472976759268E+08, 1.973345622724742E+06,
2460819.500000000, A.D. 2025-May-24 00:00:00.0000, 4.402849898991860E+08, -2.418191306800121E+08, -1.202389570800811E+05,
2460826.500000000, A.D. 2025-May-31 00:00:00.0000, 4.444447855231487E+08, -2.333983803288978E+08, -2.213777199894592E+06,
2460833.500000000, A.D. 2025-Jun-07 00:00:00.0000, 4.484340354775622E+08, -2.248881051184083E+08, -4.306465829637289E+06,
2460840.500000000, A.D. 2025-Jun-14 00:00:00.0000, 4.522508764779097E+08, -2.162914037763085E+08, -6.397498686852023E+06,
2460847.500000000, A.D. 2025-Jun-21 00:00:00.0000, 4.558934951717004E+08, -2.076114155753936E+08, -8.486066790330946E+06,
2460854.500000000, A.D. 2025-Jun-28 00:00:00.0000, 4.593601292640979E+08, -1.988513214502882E+08, -1.057135867330298E+07,
2460861.500000000, A.D. 2025-Jul-05 00:00:00.0000, 4.626490693392617E+08, -1.900143437595255E+08, -1.265256067897685E+07,
2460868.500000000, A.D. 2025-Jul-12 00:00:00.0000, 4.657586601857816E+08, -1.811037454963124E+08, -1.472885717206738E+07,
2460875.500000000, A.D. 2025-Jul-19 00:00:00.0000, 4.686873018157237E+08, -1.721228295210086E+08, -1.679943073070498E+07,
2460882.500000000, A.D. 2025-Jul-26 00:00:00.0000, 4.714334503879720E+08, -1.630749378701528E+08, -1.886346234260137E+07,
2460889.500000000, A.D. 2025-Aug-02 00:00:00.0000, 4.739956191024498E+08, -1.539634511194010E+08, -2.092013160970601E+07,
2460896.500000000, A.D. 2025-Aug-09 00:00:00.0000, 4.763723790895791E+08, -1.447917878146815E+08, -2.296861696474031E+07,
2460903.500000000, A.D. 2025-Aug-16 00:00:00.0000, 4.785623603719724E+08, -1.355634040347568E+08, -2.500809591190631E+07,
2460910.500000000, A.D. 2025-Aug-23 00:00:00.0000, 4.805642531898000E+08, -1.262817930682838E+08, -2.703774531730130E+07,
2460917.500000000, A.D. 2025-Aug-30 00:00:00.0000, 4.823768100171037E+08, -1.169504844898811E+08, -2.905674172076730E+07,
2460924.500000000, A.D. 2025-Sep-06 00:00:00.0000, 4.839988468505689E+08, -1.075730416332202E+08, -3.106426145715854E+07,
2460931.500000000, A.D. 2025-Sep-13 00:00:00.0000, 4.854292421001846E+08, -9.815305994356920E+07, -3.305948063657377E+07,
2460938.500000000, A.D. 2025-Sep-20 00:00:00.0000, 4.866669363530951E+08, -8.869416785359241E+07, -3.504157541804256E+07,
2460945.500000000, A.D. 2025-Sep-27 00:00:00.0000, 4.877109340669345E+08, -7.920002706869131E+07, -3.700972241923512E+07,
2460952.500000000, A.D. 2025-Oct-04 00:00:00.0000, 4.885603051752250E+08, -6.967433172049049E+07, -3.896309903297137E+07,
2460959.500000000, A.D. 2025-Oct-11 00:00:00.0000, 4.892141862310278E+08, -6.012080732985330E+07, -4.090088369328719E+07,
2460966.500000000, A.D. 2025-Oct-18 00:00:00.0000, 4.896717813723053E+08, -5.054320985245456E+07, -4.282225613959898E+07,
2460973.500000000, A.D. 2025-Oct-25 00:00:00.0000, 4.899323632482066E+08, -4.094532479461949E+07, -4.472639769106544E+07,
2460980.500000000, A.D. 2025-Nov-01 00:00:00.0000, 4.899952739452709E+08, -3.133096638273054E+07, -4.661249153377838E+07,
2460987.500000000, A.D. 2025-Nov-08 00:00:00.0000, 4.898599259475112E+08, -2.170397681651996E+07, -4.847972302685528E+07,
2460994.500000000, A.D. 2025-Nov-15 00:00:00.0000, 4.895258032772768E+08, -1.206822566392469E+07, -5.032728004614363E+07,
2461001.500000000, A.D. 2025-Nov-22 00:00:00.0000, 4.889924632176852E+08, -2.427609176513482E+06, -5.215435338475400E+07,
2461008.500000000, A.D. 2025-Nov-29 00:00:00.0000, 4.882595384610397E+08, 7.213951611361116E+06, -5.396013710369895E+07,
2461015.500000000, A.D. 2025-Dec-06 00:00:00.0000, 4.873267374053623E+08, 1.685251386598790E+07, -5.574382863506937E+07,
2461022.500000000, A.D. 2025-Dec-13 00:00:00.0000, 4.861938430330945E+08, 2.648411365056477E+07, -5.750462895341286E+07,
2461029.500000000, A.D. 2025-Dec-20 00:00:00.0000, 4.848607138629541E+08, 3.610476535770972E+07, -5.924174305225338E+07,
2461036.500000000, A.D. 2025-Dec-27 00:00:00.0000, 4.833272858985236E+08, 4.571046247112772E+07, -6.095438041538900E+07,
2461043.500000000, A.D. 2026-Jan-03 00:00:00.0000, 4.815935741128998E+08, 5.529717904271466E+07, -6.264175539938986E+07,
2461050.500000000, A.D. 2026-Jan-10 00:00:00.0000, 4.796596735779558E+08, 6.486087120782696E+07, -6.430308759281781E+07,
2461057.500000000, A.D. 2026-Jan-17 00:00:00.0000, 4.775257604694037E+08, 7.439747864880185E+07, -6.593760218091749E+07,
2461064.500000000, A.D. 2026-Jan-24 00:00:00.0000, 4.751920930241668E+08, 8.390292603112660E+07, -6.754453032098289E+07,
2461071.500000000, A.D. 2026-Jan-31 00:00:00.0000, 4.726590124721687E+08, 9.337312440660697E+07, -6.912310953108461E+07,
2461078.500000000, A.D. 2026-Feb-07 00:00:00.0000, 4.699269440028925E+08, 1.028039725277809E+08, -7.067258410246842E+07,
2461085.500000000, A.D. 2026-Feb-14 00:00:00.0000, 4.669963980185589E+08, 1.121913580592668E+08, -7.219220556011069E+07,
2461092.500000000, A.D. 2026-Feb-21 00:00:00.0000, 4.638679720591756E+08, 1.215311592632511E+08, -7.368123315961905E+07,
2461099.500000000, A.D. 2026-Feb-28 00:00:00.0000, 4.605423523110437E+08, 1.308192483132391E+08, -7.513893422610994E+07,
2461106.500000000, A.D. 2026-Mar-07 00:00:00.0000, 4.570203126382323E+08, 1.400514942874701E+08, -7.656458430526200E+07,
2461113.500000000, A.D. 2026-Mar-14 00:00:00.0000, 4.533027139112613E+08, 1.492237635088781E+08, -7.795746757161427E+07,
2461120.500000000, A.D. 2026-Mar-21 00:00:00.0000, 4.493905054116497E+08, 1.583319201290757E+08, -7.931687741998932E+07,
2461127.500000000, A.D. 2026-Mar-28 00:00:00.0000, 4.452847262991221E+08, 1.673718279863735E+08, -8.064211697086412E+07,
2461134.500000000, A.D. 2026-Apr-04 00:00:00.0000, 4.409865065360385E+08, 1.763393527738345E+08, -8.193249951294126E+07,
2461141.500000000, A.D. 2026-Apr-11 00:00:00.0000, 4.364970675421747E+08, 1.852303641582082E+08, -8.318734893743560E+07,
2461148.500000000, A.D. 2026-Apr-18 00:00:00.0000, 4.318177227382962E+08, 1.940407378429372E+08, -8.440600017917311E+07,
2461155.500000000, A.D. 2026-Apr-25 00:00:00.0000, 4.269498780230218E+08, 2.027663575892859E+08, -8.558779966725710E+07,
2461162.500000000, A.D. 2026-May-02 00:00:00.0000, 4.218950322118604E+08, 2.114031171651948E+08, -8.673210579012129E+07,
2461169.500000000, A.D. 2026-May-09 00:00:00.0000, 4.166547775610572E+08, 2.199469221549437E+08, -8.783828939135055E+07,
2461176.500000000, A.D. 2026-May-16 00:00:00.0000, 4.112308007522182E+08, 2.283936917669864E+08, -8.890573431920025E+07,
2461183.500000000, A.D. 2026-May-23 00:00:00.0000, 4.056248843865426E+08, 2.367393616605780E+08, -8.993383795029020E+07,
2461190.500000000, A.D. 2026-May-30 00:00:00.0000, 3.998389069058740E+08, 2.449798881099498E+08, -9.092201146962300E+07,
2461197.500000000, A.D. 2026-Jun-06 00:00:00.0000, 3.938748406213102E+08, 2.531112502335082E+08, -9.186968014517540E+07,
2461204.500000000, A.D. 2026-Jun-13 00:00:00.0000, 3.877347515146964E+08, 2.611294504859254E+08, -9.277628391733426E+07,
2461211.500000000, A.D. 2026-Jun-20 00:00:00.0000, 3.814208003087618E+08, 2.690305163368326E+08, -9.364127801753247E+07,
2461218.500000000, A.D. 2026-Jun-27 00:00:00.0000, 3.749352431040100E+08, 2.768105027948869E+08, -9.446413348747006E+07,
2461225.500000000, A.D. 2026-Jul-04 00:00:00.0000, 3.682804315795420E+08, 2.844654950012027E+08, -9.524433766190375E+07,
2461232.500000000, A.D. 2026-Jul-11 00:00:00.0000, 3.614588130092408E+08, 2.919916107588449E+08, -9.598139464877865E+07,
2461239.500000000, A.D. 2026-Jul-18 00:00:00.0000, 3.544729301834960E+08, 2.993850030225044E+08, -9.667482581275231E+07,
2461246.500000000, A.D. 2026-Jul-25 00:00:00.0000, 3.473254212583482E+08, 3.066418623493341E+08, -9.732417026371200E+07,
2461253.500000000, A.D. 2026-Aug-01 00:00:00.0000, 3.400190195776372E+08, 3.137584192610525E+08, -9.792898535817358E+07,
2461260.500000000, A.D. 2026-Aug-08 00:00:00.0000, 3.325565536807644E+08, 3.207309464797004E+08, -9.848884723579642E+07,
2461267.500000000, A.D. 2026-Aug-15 00:00:00.0000, 3.249409479092783E+08, 3.275557614852796E+08, -9.900335139192045E+07,
2461274.500000000, A.D. 2026-Aug-22 00:00:00.0000, 3.171752228486797E+08, 3.342292306129760E+08, -9.947211311560950E+07,
2461281.500000000, A.D. 2026-Aug-29 00:00:00.0000, 3.092624933120511E+08, 3.407477733143052E+08, -9.989476769390225E+07,
2461288.500000000, A.D. 2026-Sep-05 00:00:00.0000, 3.012059659970846E+08, 3.471078637137737E+08, -1.002709708120701E+08,
2461295.500000000, A.D. 2026-Sep-12 00:00:00.0000, 2.930089392711623E+08, 3.533060319543149E+08, -1.006003991710758E+08,
$$EOE